[{"OBJECT_NAME":"STARLINK-5119","OBJECT_ID":"2022-125Y","EPOCH":"2026-03-09T15:56:53.332224","MEAN_MOTION":15.08839018,"ECCENTRICITY":0.00013163,"INCLINATION":53.2175,"RA_OF_ASC_NODE":203.9137,"ARG_OF_PERICENTER":86.8973,"MEAN_ANOMALY":273.217,"EPHEMERIS_TYPE":0,"CLASSIFICATION_TYPE":"U","NORAD_CAT_ID":53986,"ELEMENT_SET_NO":999,"REV_AT_EPOCH":18959,"BSTAR":2.1470498e-5,"MEAN_MOTION_DOT":5.4e-7,"MEAN_MOTION_DDOT":0},{"OBJECT_NAME":"CZ-6A DEB","OBJECT_ID":"2024-140AAU","EPOCH":"2026-03-09T16:48:50.985504","MEAN_MOTION":14.99127941,"ECCENTRICITY":0.00591225,"INCLINATION":89.196,"RA_OF_ASC_NODE":296.0099,"ARG_OF_PERICENTER":104.8686,"MEAN_ANOMALY":255.9106,"EPHEMERIS_TYPE":0,"CLASSIFICATION_TYPE":"U","NORAD_CAT_ID":61486,"ELEMENT_SET_NO":999,"REV_AT_EPOCH":8015,"BSTAR":0.0049724997,"MEAN_MOTION_DOT":0.00063139,"MEAN_MOTION_DDOT":0}]
